H1 CPF 01  gfz 2021 09 21 12  7642 tandemx   
H2 1003001  6202 36605    2021 09 21 12 59 42 2021 09 26 00 00 42   120 1 1  0 0 0
H9
10 0 59482  32382.000000  0   -4927531.584   4573978.831  -1513013.567
10 0 59482  32502.000000  0   -4904769.596   4799623.534   -619559.575
10 0 59482  32622.000000  0   -4793126.366   4940250.807    284793.457
10 0 59482  32742.000000  0   -4596029.187   4991832.191   1184131.894
10 0 59482  32862.000000  0   -4318474.635   4951984.631   2062617.572
10 0 59482  32982.000000  0   -3966910.366   4820039.989   2904776.633
10 0 59482  33102.000000  0   -3549088.096   4597079.535   3695779.657
10 0 59482  33222.000000  0   -3073892.612   4285933.160   4421708.002
10 0 59482  33342.000000  0   -2551151.020   3891143.614   5069802.052
10 0 59482  33462.000000  0   -1991425.900   3418895.896   5628685.996
10 0 59482  33582.000000  0   -1405798.174   2876914.237   6088564.715
10 0 59482  33702.000000  0    -805644.588   2274329.341   6441390.081
10 0 59482  33822.000000  0    -202416.005   1621519.592   6680994.257
10 0 59482  33942.000000  0     392580.498    929929.790   6803192.444
10 0 59482  34062.000000  0     968393.382    211868.961   6805850.867
10 0 59482  34182.000000  0    1514627.047   -519707.872   6688921.651
10 0 59482  34302.000000  0    2021628.847  -1251432.933   6454444.482
10 0 59482  34422.000000  0    2480659.659  -1969769.140   6106513.435
10 0 59482  34542.000000  0    2884046.330  -2661260.849   5651210.969
10 0 59482  34662.000000  0    3225312.660  -3312787.452   5096506.822
10 0 59482  34782.000000  0    3499286.160  -3911815.408   4452124.467
10 0 59482  34902.000000  0    3702180.025  -4446644.105   3729375.790
10 0 59482  35022.000000  0    3831647.022  -4906640.517   2940964.743
10 0 59482  35142.000000  0    3886804.110  -5282456.793   2100764.083
10 0 59482  35262.000000  0    3868227.319  -5566225.679   1223568.146
10 0 59482  35382.000000  0    3777916.244  -5751728.238    324826.344
10 0 59482  35502.000000  0    3619229.527  -5834529.422   -579635.503
10 0 59482  35622.000000  0    3396793.169  -5812080.057  -1473903.096
10 0 59482  35742.000000  0    3116381.486  -5683778.953  -2342262.616
10 0 59482  35862.000000  0    2784777.150  -5450996.540  -3169483.487
10 0 59482  35982.000000  0    2409611.931  -5117058.163  -3941090.745
10 0 59482  36102.000000  0    1999192.665  -4687188.105  -4643619.065
10 0 59482  36222.000000  0    1562318.126  -4168417.321  -5264843.631
10 0 59482  36342.000000  0    1108092.420  -3569458.214  -5793985.325
10 0 59482  36462.000000  0     645737.292  -2900550.028  -6221887.931
10 0 59482  36582.000000  0     184407.164  -2173278.247  -6541165.387
10 0 59482  36702.000000  0    -266988.622  -1400371.039  -6746318.116
10 0 59482  36822.000000  0    -699953.116   -595476.937  -6833818.146
10 0 59482  36942.000000  0   -1106556.883    227072.913  -6802162.881
10 0 59482  37062.000000  0   -1479579.700   1052513.745  -6651897.079
10 0 59482  37182.000000  0   -1812635.713   1865905.360  -6385604.407
10 0 59482  37302.000000  0   -2100280.448   2652395.554  -6007868.023
10 0 59482  37422.000000  0   -2338099.901   3397486.954  -5525201.344
10 0 59482  37542.000000  0   -2522778.776   4087302.642  -4945946.538
10 0 59482  37662.000000  0   -2652147.970   4708846.886  -4280142.182
10 0 59482  37782.000000  0   -2725209.157   5250255.191  -3539358.651
10 0 59482  37902.000000  0   -2742135.042   5701026.848  -2736504.841
10 0 59482  38022.000000  0   -2704246.213   6052237.939  -1885610.305
10 0 59482  38142.000000  0   -2613964.183   6296728.911  -1001581.223
10 0 59482  38262.000000  0   -2474740.867   6429257.904    -99937.263
10 0 59482  38382.000000  0   -2290967.839   6446621.232    803464.348
10 0 59482  38502.000000  0   -2067864.620   6347734.038   1692718.613
10 0 59482  38622.000000  0   -1811348.096   6133663.761   2552163.646
10 0 59482  38742.000000  0   -1527888.875   5807620.414   3366664.372
10 0 59482  38862.000000  0   -1224358.583   5374904.813   4121884.800
10 0 59482  38982.000000  0    -907871.908   4842815.970   4804544.899
10 0 59482  39102.000000  0    -585624.752   4220518.013   5402656.274
10 0 59482  39222.000000  0    -264734.654   3518873.069   5905729.198
10 0 59482  39342.000000  0      47911.884   2750243.526   6304953.385
10 0 59482  39462.000000  0     345803.730   1928266.899   6593346.018
10 0 59482  39582.000000  0     622938.050   1067609.771   6765868.235
10 0 59482  39702.000000  0     873939.206    183703.329   6819507.285
10 0 59482  39822.000000  0    1094161.604   -707532.372   6753325.579
10 0 59482  39942.000000  0    1279775.129  -1589974.689   6568477.246
10 0 59482  40062.000000  0    1427831.964  -2447589.607   6268189.500
10 0 59482  40182.000000  0    1536313.600  -3264723.928   5857710.300
10 0 59482  40302.000000  0    1604156.885  -4026393.610   5344221.177
10 0 59482  40422.000000  0    1631259.337  -4718561.378   4736716.337
10 0 59482  40542.000000  0    1618464.365  -5328400.668   4045851.918
10 0 59482  40662.000000  0    1567525.848  -5844543.225   3283763.687
10 0 59482  40782.000000  0    1481051.786  -6257300.132   2463853.562
10 0 59482  40902.000000  0    1362428.883  -6558851.861   1600553.018
10 0 59482  41022.000000  0    1215729.924  -6743405.350    709065.828
10 0 59482  41142.000000  0    1045605.825  -6807311.944   -194906.310
10 0 59482  41262.000000  0     857163.686  -6749143.364  -1095450.248
10 0 59482  41382.000000  0     655835.129  -6569719.369  -1976732.249
10 0 59482  41502.000000  0     447239.871  -6272089.428  -2823283.391
10 0 59482  41622.000000  0     237047.314  -5861472.066  -3620275.780
10 0 59482  41742.000000  0      30839.008  -5345152.027  -4353784.852
10 0 59482  41862.000000  0    -166024.649  -4732337.410  -5011030.851
10 0 59482  41982.000000  0    -348529.812  -4033983.332  -5580595.340
10 0 59482  42102.000000  0    -512124.107  -3262585.809  -6052611.112
10 0 59482  42222.000000  0    -652818.466  -2431950.721  -6418922.374
10 0 59482  42342.000000  0    -767274.546  -1556942.926  -6673214.105
10 0 59482  42462.000000  0    -852876.248   -653220.892  -6811110.114
10 0 59482  42582.000000  0    -907784.225    263040.020  -6830240.623
10 0 59482  42702.000000  0    -930972.396   1175430.817  -6730277.246
10 0 59482  42822.000000  0    -922246.541   2067594.896  -6512937.925
10 0 59482  42942.000000  0    -882244.656   2923513.665  -6181960.763
10 0 59482  43062.000000  0    -812418.639   3727789.420  -5743048.199
10 0 59482  43182.000000  0    -714997.859   4465921.009  -5203778.516
10 0 59482  43302.000000  0    -592934.767   5124567.064  -4573486.684
10 0 59482  43422.000000  0    -449834.036   5691793.687  -3863113.762
10 0 59482  43542.000000  0    -289865.686   6157299.820  -3085025.741
10 0 59482  43662.000000  0    -117663.723   6512615.486  -2252805.072
10 0 59482  43782.000000  0      61787.397   6751268.806  -1381016.795
10 0 59482  43902.000000  0     243276.016   6868916.386   -484952.874
10 0 59482  44022.000000  0     421493.755   6863432.879    419640.322
10 0 59482  44142.000000  0     591169.853   6734956.926   1316846.097
10 0 59482  44262.000000  0     747205.152   6485890.666   2190866.581
10 0 59482  44382.000000  0     884801.227   6120853.050   3026309.136
10 0 59482  44502.000000  0     999582.740   5646590.771   3808464.592
10 0 59482  44622.000000  0    1087711.644   5071846.649   4523571.360
10 0 59482  44742.000000  0    1145988.068   4407189.727   5159064.117
10 0 59482  44862.000000  0    1171933.972   3664806.717   5703792.485
10 0 59482  44982.000000  0    1163862.630   2858270.746   6148211.404
10 0 59482  45102.000000  0    1120928.365   2002286.290   6484543.963
10 0 59482  45222.000000  0    1043157.264   1112415.803   6706911.862
10 0 59482  45342.000000  0     931458.435    204793.503   6811431.708
10 0 59482  45462.000000  0     787615.505   -704166.280   6796278.149
10 0 59482  45582.000000  0     614258.141  -1598065.509   6661715.353
10 0 59482  45702.000000  0     414813.928  -2460818.242   6410092.842
10 0 59482  45822.000000  0     193441.304  -3276941.145   6045807.377
10 0 59482  45942.000000  0     -45054.719  -4031833.040   5575228.057
10 0 59482  46062.000000  0    -295322.243  -4712037.149   5006590.301
10 0 59482  46182.000000  0    -551576.339  -5305486.376   4349860.273
10 0 59482  46302.000000  0    -807726.686  -5801728.099   3616566.083
10 0 59482  46422.000000  0   -1057515.462  -6192118.110   2819596.711
10 0 59482  46542.000000  0   -1294661.541  -6469980.401   1972975.163
10 0 59482  46662.000000  0   -1513007.947  -6630730.864   1091609.524
10 0 59482  46782.000000  0   -1706670.851  -6671959.685    191023.395
10 0 59482  46902.000000  0   -1870182.577  -6593468.494   -712926.416
10 0 59482  47022.000000  0   -1998626.586  -6397263.199  -1604337.908
10 0 59482  47142.000000  0   -2087761.442  -6087502.920  -2467551.649
10 0 59482  47262.000000  0   -2134130.777  -5670406.300  -3287432.679
10 0 59482  47382.000000  0   -2135156.088  -5154116.950  -4049640.182
10 0 59482  47502.000000  0   -2089209.993  -4548532.655  -4740878.049
10 0 59482  47622.000000  0   -1995668.891  -3865104.656  -5349122.057
10 0 59482  47742.000000  0   -1854944.552  -3116612.365  -5863821.344
10 0 59482  47862.000000  0   -1668494.009  -2316918.038  -6276072.226
10 0 59482  47982.000000  0   -1438807.367  -1480705.867  -6578761.153
10 0 59482  48102.000000  0   -1169374.947   -623212.293  -6766675.560
10 0 59482  48222.000000  0    -864634.873    240048.213  -6836583.733
10 0 59482  48342.000000  0    -529900.519   1093557.495  -6787283.730
10 0 59482  48462.000000  0    -171269.667   1922065.283  -6619621.539
10 0 59482  48582.000000  0     204482.484   2710854.381  -6336478.678
10 0 59482  48702.000000  0     590027.614   3445997.993  -5942730.078
10 0 59482  48822.000000  0     977623.551   4114604.160  -5445168.168
99
